BEIDOU-2 G5             
1 38091U 12008A   26095.18615262  .00000058  00000+0  00000+0 0  9996
2 38091   3.3924  70.1158 0013180 261.3911 347.7894  1.00276225 51634
BEIDOU-2 M3             
1 38250U 12018A   26094.08855807 -.00000064  00000+0  00000+0 0  9991
2 38250  55.8207 307.3724 0020184 279.4080  80.3921  1.86229902 94564
BEIDOU-2 M4             
1 38251U 12018B   26094.02075009 -.00000064  00000+0  00000+0 0  9994
2 38251  55.7212 306.5945 0011480 286.2876  73.6134  1.86229532 94564
SES-5                   
1 38652U 12036A   26095.22822667  .00000035  00000+0  00000+0 0  9999
2 38652   0.0599 303.0130 0002016  75.2098 262.4372  1.00271682 43728
BEIDOU-2 M6             
1 38775U 12050B   26094.80463637 -.00000040  00000+0  00000+0 0  9999
2 38775  56.4825  65.3192 0014456 345.2296  14.7002  1.86231043 91944
GSAT-10                 
1 38779U 12051B   26095.12316836 -.00000164  00000+0  00000+0 0  9995
2 38779   0.0824 265.6529 0006267 171.8567 243.2403  1.00273123 49360
NAVSTAR 67 (USA 239)    
1 38833U 12053A   26095.02688962  .00000024  00000+0  00000+0 0  9993
2 38833  53.5702 146.5972 0177415  64.9825 296.9316  2.00566348 97974
GSAT0103 (GALILEO-FM3)  
1 38857U 12055A   26094.56573666  .00000030  00000+0  00000+0 0  9990
2 38857  55.7599 103.5640 0005910 291.5496  68.4144  1.70473519 83750
BEIDOU-2 G6             
1 38953U 12059A   26095.04852539 -.00000173  00000+0  00000+0 0  9993
2 38953   4.2370  74.2924 0010927 311.7479 268.8374  1.00271726 49170
LUCH-5B                 
1 38977U 12061A   26095.17124588 -.00000134  00000+0  00000+0 0  9999
2 38977  10.3284  50.5926 0002337 229.5635 318.6546  1.00273707 48875
COSMOS 2485 [GLONASS-M] 
1 39155U 13019A   26093.29778161 -.00000003  00000+0  00000+0 0  9990
2 39155  65.3788  76.1162 0025098 237.7826 121.9613  2.13103023100687
NAVSTAR 68 (USA 242)    
1 39166U 13023A   26090.90349851 -.00000034  00000+0  00000+0 0  9996
2 39166  54.5658 272.1198 0141962  50.3418 310.8851  2.00563989 94331
IRNSS-1A                
1 39199U 13034A   26092.99628165  .00000081  00000+0  00000+0 0  9994
2 39199  35.5564  64.9409 0016725 190.8703 349.2228  1.00278968 46610
NAVSTAR 69 (USA 248)    
1 39533U 14008A   26094.89210251  .00000024  00000+0  00000+0 0  9999
2 39533  53.6410 152.3102 0083289 229.4069 129.9443  2.00555176 88212
ASTRA 5B                
1 39617U 14011B   26095.21711404  .00000138  00000+0  00000+0 0  9995
2 39617   0.0730 306.6325 0003364  49.4986 299.0350  1.00273337 43932
COSMOS 2492 [GLONASS-M] 
1 39620U 14012A   26093.25674527 -.00000045  00000+0  00000+0 0  9994
2 39620  65.3400 316.4836 0012343 329.7830  30.1983  2.13103206 93640
IRNSS-1B                
1 39635U 14017A   26094.97165815  .00000103  00000+0  00000+0 0  9994
2 39635  29.0655 241.6543 0022916 179.7859 176.7911  1.00265949 44057
